ONEWEB-0560             
1 55145U 23004F   25300.51327920  .00000119  00000+0  26801-3 0  9998
2 55145  87.9218  21.6857 0002094 105.4863 254.6500 13.18686382139043
ONEWEB-0565             
1 55146U 23004G   25300.50668096  .00000073  00000+0  15354-3 0  9990
2 55146  87.9209  21.7377 0002266  93.1527 266.9864 13.18686168139033
ONEWEB-0567             
1 55147U 23004H   25300.50008256  .00000099  00000+0  21918-3 0  9998
2 55147  87.9216  21.7017 0002236  98.6557 261.4828 13.18686184139031
ONEWEB-0569             
1 55148U 23004J   25300.20938220 -.00018235  00000+0 -50000-1 0  9994
2 55148  87.9041   6.5067 0002291 110.3696 249.7679 13.13563345139593
ONEWEB-0570             
1 55149U 23004K   25300.49018650  .00000027  00000+0  36419-4 0  9991
2 55149  87.9215  21.7038 0001908  83.8286 276.3064 13.18686130139022
ONEWEB-0571             
1 55150U 23004L   25300.48358858  .00000140  00000+0  32293-3 0  9990
2 55150  87.9211  21.7073 0003091  94.5803 265.5682 13.18687629139039
ONEWEB-0572             
1 55151U 23004M   25300.54717303  .00000152  00000+0  35777-3 0  9995
2 55151  87.9127  52.1270 0001887  96.6584 263.4763 13.17649403136843
ONEWEB-0573             
1 55152U 23004N   25300.47699382  .00000116  00000+0  26029-3 0  9994
2 55152  87.9210  21.7155 0002479  86.0526 274.0889 13.18686892139022
